<?xml version="1.0" encoding="UTF-8"?>
<kml xmlns="http://www.opengis.net/kml/2.2">
  <Document>
    <name>Great Circle Path - Ancient Sites</name>
    <Style id="pathStyle">
      <LineStyle>
        <color>ff0000ff</color>
        <width>4</width>
      </LineStyle>
    </Style>
    <Placemark>
      <name>Ancient Sites Great Circle</name>
      <styleUrl>#pathStyle</styleUrl>
      <LineString>
        <tessellate>1</tessellate>
        <coordinates>
          41.353914,30.317878000000004,0
          42.51552923554806,30.312746702468107,0
          43.67690126121926,30.297355992984638,0
          44.837787470150374,30.271715412944296,0
          45.997946458318154,30.23584083824802,0
          47.15713861802337,30.189754439842886,0
          48.31512672193989,30.13348462882592,0
          49.471676494731895,30.067065986455496,0
          50.62655716936297,29.990539179505053,0
          51.77954202537194,29.903950861481146,0
          52.930408906564594,29.80735356030832,0
          54.078940715766294,29.700805553158435,0
          55.2249258844966,29.58437072916936,0
          56.36815881565781,29.458118440857316,0
          57.50844029757326,29.322123345079458,0
          58.64557788796424,29.176465234445633,0
          59.77938626671241,29.02122886011299,0
          60.90968755651562,28.856503746922765,0
          62.03631161080443,28.682384001855382,0
          63.159096268542044,28.49896811678854,0
          64.277887575779,28.306358766542946,0
          65.39253997407206,28.104662603193056,0
          66.50291645610352,27.893990047604586,0
          67.60888868904988,27.674455079139,0
          68.71033710644468,27.44617502443662,0
          69.80715096945997,27.209270346156366,0
          70.89922839869229,26.963864432510967,0
          71.98647637768042,26.710083388393407,0
          73.06881072950605,26.448055828843735,0
          74.14615606793032,26.17791267555539,0
          75.21844572460523,25.899786957068542,0
          76.285621653963,25.613813613244293,0
          77.34763431743414,25.320129304559366,0
          78.40444254867538,25.01887222670589,0
          79.45601340150193,24.710181930926513,0
          80.50232198221784,24.39419915046101,0
          81.54335126802283,24.071065633427935,0
          82.57909191314639,23.740923982413495,0
          83.60954204432113,23.403917500990325,0
          84.63470704715883,23.06019004734194,0
          85.65459934493555,22.709885895123374,0
          86.66923817122802,22.353149601646457,0
          87.6786493377723,21.990125883438637,0
          88.68286499884329,21.6209594991874,0
          89.68192341337209,21.245795140048422,0
          90.67586870594096,20.864777327264957,0
          91.6647506277107,20.478050317017285,0
          92.64862431825355,20.085758012396447,0
          93.62755006918297,19.68804388237365,0
          94.60159309038886,19.28505088761704,0
          95.57082327960728,18.876921412990477,0
          96.5353149959767,18.46379720655415,0
          97.49514683815573,18.045819324874685,0
          98.45040142750759,17.623128084442016,0
          99.40116519678406,17.195863018982482,0
          100.34752818467996,16.764162842451203,0
          101.28958383656345,16.328165417482538,0
          102.22742881163128,15.888007729074594,0
          103.16116279668375,15.443825863282239,0
          104.09088832666157,14.99575499069339,0
          105.0167106120411,14.543929354464048,0
          105.93873737314192,14.088482262690167,0
          106.85707868135808,13.629546084897203,0
          107.77184680729124,13.167252252432208,0
          108.68315607572879,12.70173126254795,0
          109.59112272738099,12.233112685973465,0
          110.49586478726496,11.761525177771203,0
          111.39750193959742,11.287096491286764,0
          112.2961554090395,10.809953495003501,0
          113.19194784811543,10.330222192120637,0
          114.0850032306127,9.84802774268016,0
          114.97544675075471,9.363494488074343,0
          115.86340472792608,8.876745977772384,0
          116.74900451671908,8.38790499811119,0
          117.63237442206082,7.897093603001844,0
          118.51364361917314,7.404433146409641,0
          119.39294207811065,6.91004431647169,0
          120.27040049261689,6.4140471711220215,0
          121.14615021303405,5.916561175099922,0
          122.02032318299956,5.41770523822249,0
          122.89305187965783,4.9175977548077245,0
          123.76446925711605,4.416356644139098,0
          124.63470869286874,3.9140993918672824,0
          125.50390393691708,3.4109430922485853,0
          126.37218906330645,2.907004491123702,0
          127.23969842380637,2.4024000295436463,0
          128.10656660345592,1.897245887952895,0
          128.97292837769862,1.3916580308423763,0
          129.83891867082946,0.8857522517872815,0
          130.70467251547842,0.37964421878654253,0
          131.57032501285323,-0.12655048017765655,0
          132.43601129346592,-0.6327162914408747,0
          133.30186647806613,-1.138737649897785,0
          134.1680256385058,-1.6444989332633564,0
          135.03462375825785,-2.149884416433613,0
          135.90179569231452,-2.654778226026004,0
          136.7696761261867,-3.1590642951804733,0
          137.63839953372968,-3.6626263187035497,0
          138.50810013351793,-4.165347708639524,0
          139.378911843492,-4.66711155035483,0
          140.2509682336024,-5.1678005592242755,0
          141.124402476172,-5.667297038010599,0
          141.9993472937025,-6.165482835032098,0
          142.87593490384938,-6.662239303216716,0
          143.75429696128913,-7.157447260144844,0
          144.63456449620804,-7.650986949187602,0
          145.51686784913852,-8.142738001851855,0
          146.40133660187553,-8.63257940144831,0
          147.2880995042064,-9.120389448204238,0
          148.17728439619202,-9.606045725948064,0
          149.06901812574165,-10.089425070498724,0
          149.96342646123065,-10.570403539898866,0
          150.86063399891543,-11.048856386637205,0
          151.76076406491097,-11.524658032011642,0
          152.6639386115043,-11.997682042791485,0
          153.57027810758836,-12.467801110343474,0
          154.4799014230175,-12.934887032393181,0
          155.39292570669716,-13.39881069759975,0
          156.30946625824072,-13.859442073128648,0
          157.22963639304572,-14.316650195413136,0
          158.15354730066372,-14.770303164301584,0
          159.0813078963655,-15.220268140793406,0
          160.0130246658274,-15.666411348571526,0
          160.9488015029027,-16.108598079544617,0
          161.8887395404675,-16.546692703615957,0
          162.83293697437887,-16.980558682899936,0
          163.78148888061492,-17.410058590609186,0
          164.73448702571955,-17.835054134837705,0
          165.69201967071723,-18.255406187465127,0
          166.654171368721,-18.67097481840758,0
          167.62102275650932,-19.081619335437427,0
          168.59265034041033,-19.48719832979153,0
          169.5691262768944,-19.88756972778194,0
          170.55051814834337,-20.282590848615726,0
          171.53688873453746,-20.672118468622024,0
          172.52829578047078,-21.056008892072512,0
          173.5247917611885,-21.43411802876873,0
          174.52642364441135,-21.806301478553127,0
          175.53323265179984,-22.172414622882755,0
          176.54525401978782,-22.532312723583065,0
          177.5625167610026,-22.885851028875773,0
          178.58504342736524,-23.232884886747822,0
          179.61284987605222,-23.573269865699075,0
          -179.35405496042313,-23.90686188287406,0
          -178.31566929867665,-24.23351733954743,0
          -177.27199872205688,-24.55309326389517,0
          -176.22305638991259,-24.86544746094195,0
          -175.1688632369872,-25.170438669532228,0
          -174.10944816135316,-25.467926726125828,0
          -173.0448481992513,-25.75777273517105,0
          -171.97510868517088,-26.039839245757427,0
          -170.9002833954811,-26.313990434198754,0
          -169.82043467392003,-26.58009229214293,0
          -168.7356335372491,-26.83801281975159,0
          -167.64595975940676,-27.087622223437187,0
          -166.55150193253132,-27.328793117590706,0
          -165.45235750327942,-27.561400729679402,0
          -164.34863278294296,-27.78532310804067,0
          -163.2404429299587,-28.000441331647913,0
          -162.12791190351948,-28.206639721075266,0
          -161.01117238712823,-28.403806049843606,0
          -159.89036568108685,-28.591831755288773,0
          -158.7656415630837,-28.770612148056355,0
          -157.63715811623,-28.940046619296663,0
          -156.50508152410112,-29.100038844607866,0
          -155.36958583255864,-29.250496983756832,0
          -154.2308526783603,-29.39133387519583,0
          -153.08907098481103,-29.522467224389366,0
          -151.94443662495888,-29.64381978496961,0
          -150.79715205309697,-29.75531953175175,0
          -149.64742590559587,-29.856899824661557,0
          -148.49547257234775,-29.948499562657855,0
          -147.34151174036117,-30.030063326770975,0
          -146.18576791129442,-30.101541511425836,0
          -145.0284698949518,-30.162890443273824,0
          -143.86985028099298,-30.21407248682155,0
          -142.71014489131005,-30.25505613621542,0
          -141.54959221571386,-30.285816092618916,0
          -140.38843283373285,-30.306333326703818,0
          -139.22690882546573,-30.316595125865376,0
          -138.06526317453432,-30.316595125865376,0
          -136.90373916626714,-30.306333326703818,0
          -135.74257978428622,-30.285816092618916,0
          -134.58202710868997,-30.25505613621542,0
          -133.42232171900707,-30.21407248682155,0
          -132.26370210504825,-30.162890443273824,0
          -131.10640408870563,-30.101541511425843,0
          -129.95066025963885,-30.030063326770986,0
          -128.79669942765233,-29.948499562657855,0
          -127.64474609440417,-29.85689982466156,0
          -126.49501994690308,-29.755319531751752,0
          -125.34773537504114,-29.643819784969626,0
          -124.20310101518899,-29.522467224389366,0
          -123.0613193216398,-29.39133387519584,0
          -121.92258616744144,-29.250496983756836,0
          -120.7870904758989,-29.100038844607873,0
          -119.65501388377004,-28.94004661929667,0
          -118.52653043691633,-28.77061214805636,0
          -117.4018063189132,-28.59183175528878,0
          -116.28099961287184,-28.40380604984362,0
          -115.16426009648058,-28.20663972107527,0
          -114.05172907004136,-28.000441331647924,0
          -112.94353921705705,-27.78532310804068,0
          -111.83981449672063,-27.561400729679406,0
          -110.74067006746873,-27.328793117590717,0
          -109.64621224059324,-27.0876222234372,0
          -108.55653846275095,-26.838012819751608,0
          -107.47173732608,-26.580092292142943,0
          -106.39188860451893,-26.31399043419877,0
          -105.31706331482914,-26.039839245757445,0
          -104.24732380074866,-25.75777273517106,0
          -103.18272383864682,-25.46792672612584,0
          -102.12330876301282,-25.17043866953224,0
          -101.06911561008744,-24.865447460941965,0
          -100.02017327794313,-24.553093263895178,0
          -98.97650270132344,-24.233517339547454,0
          -97.93811703957695,-23.906861882874075,0
          -96.9050218760523,-23.573269865699096,0
          -95.87721542736526,-23.232884886747836,0
          -94.85468876100268,-22.885851028875795,0
          -93.83742601978787,-22.53231272358308,0
          -92.8254046517998,-22.17241462288277,0
          -91.8185956444114,-21.806301478553138,0
          -90.81696376118856,-21.434118028768744,0
          -89.8204677804708,-21.056008892072526,0
          -88.82906073453745,-20.672118468622042,0
          -87.84269014834344,-20.282590848615754,0
          -86.86129827689442,-19.88756972778195,0
          -85.8848223404104,-19.487198329791557,0
          -84.91319475650933,-19.08161933543744,0
          -83.94634336872102,-18.670974818407608,0
          -82.9841916707173,-18.255406187465155,0
          -82.02665902571954,-17.83505413483771,0
          -81.07366088061495,-17.410058590609204,0
          -80.12510897437885,-16.98055868289995,0
          -79.18091154046753,-16.546692703615985,0
          -78.24097350290272,-16.10859807954464,0
          -77.30519666582747,-15.666411348571541,0
          -76.37347989636547,-15.220268140793424,0
          -75.44571930066382,-14.77030316430161,0
          -74.52180839304579,-14.316650195413168,0
          -73.6016382582408,-13.859442073128664,0
          -72.68509770669722,-13.398810697599771,0
          -71.77207342301755,-12.934887032393199,0
          -70.8624501075884,-12.467801110343505,0
          -69.95611061150433,-11.997682042791498,0
          -69.05293606491104,-11.52465803201166,0
          -68.15280599891541,-11.048856386637224,0
          -67.25559846123068,-10.570403539898889,0
          -66.36119012574171,-10.089425070498752,0
          -65.46945639619202,-9.606045725948077,0
          -64.58027150420642,-9.120389448204257,0
          -63.69350860187555,-8.632579401448334,0
          -62.80903984913857,-8.142738001851887,0
          -61.926736496208065,-7.650986949187614,0
          -61.04646896128915,-7.157447260144863,0
          -60.16810690384935,-6.662239303216742,0
          -59.29151929370255,-6.1654828350321305,0
          -58.41657447617203,-5.667297038010631,0
          -57.54314023360246,-5.16780055922429,0
          -56.671083843492084,-4.667111550354849,0
          -55.80027213351795,-4.16534770863955,0
          -54.93057153372975,-3.6626263187035835,0
          -54.06184812618669,-3.1590642951804875,0
          -53.193967692314516,-2.6547782260260244,0
          -52.32679575825787,-2.1498844164336393,0
          -51.460197638505804,-1.6444989332633893,0
          -50.59403847806624,-1.1387376498978243,0
          -49.728183293465946,-0.6327162914408946,0
          -48.86249701285328,-0.12655048017767648,0
          -47.99684451547847,0.37964421878651616,0
          -47.13109067082951,0.8857522517872488,0
          -46.265100377698644,1.3916580308423632,0
          -45.39873860345597,1.8972458879528755,0
          -44.531870423806424,2.40240002954362,0
          -43.6643610633065,2.907004491123669,0
          -42.79607593691708,3.4109430922485724,0
          -41.926880692868764,3.9140993918672615,0
          -41.0566412571161,4.416356644139073,0
          -40.18522387965788,4.917597754807693,0
          -39.31249518299961,5.417705238222459,0
          -38.4383222130341,5.9165611750999085,0
          -37.56257249261694,6.414047171122002,0
          -36.6851140781107,6.910044316471664,0
          -35.80581561917316,7.404433146409612,0
          -34.924546422060814,7.89709360300183,0
          -34.04117651671913,8.387904998111173,0
          -33.15557672792616,8.876745977772359,0
          -32.267618750754764,9.36349448807431,0
          -31.37717523061275,9.848027742680124,0
          -30.484119848115427,10.330222192120623,0
          -29.588327409039522,10.809953495003482,0
          -28.68967393959747,11.28709649128674,0
          -27.788036787265014,11.761525177771173,0
          -26.883294727381013,12.233112685973454,0
          -25.975328075728783,12.701731262547932,0
          -25.06401880729129,13.167252252432183,0
          -24.149250681358154,13.629546084897171,0
          -23.23090937314194,14.088482262690157,0
          -22.308882612041117,14.543929354464028,0
          -21.383060326661592,14.995754990693367,0
          -20.453334796683805,15.443825863282214,0
          -19.519600811631307,15.888007729074562,0
          -18.581755836563445,16.328165417482527,0
          -17.63970018468001,16.76416284245118,0
          -16.693337196784086,17.195863018982465,0
          -15.742573427507608,17.62312808444199,0
          -14.787318838155755,18.045819324874675,0
          -13.827486995976699,18.463797206554137,0
          -12.862995279607333,18.87692141299046,0
          -11.893765090388882,19.285050887617018,0
          -10.919722069183024,19.68804388237362,0
          -9.940796318253575,20.085758012396433,0
          -8.956922627710753,20.478050317017267,0
          -7.968040705941036,20.864777327264942,0
          -6.97409541337214,21.245795140048397,0
          -5.975036998843279,21.620959499187386,0
          -4.97082133777235,21.99012588343863,0
          -3.9614101712280387,22.35314960164644,0
          -2.9467713449355983,22.709885895123353,0
          -1.9268790471588773,23.06019004734192,0
          -0.9017140443211815,23.403917500990307,0
          0.12873608685353588,23.740923982413474,0
          1.1644767319771177,24.07106563342792,0
          2.2055060177821133,24.394199150460985,0
          3.251814598498072,24.710181930926506,0
          4.303385451324573,25.01887222670588,0
          5.360193682565779,25.320129304559348,0
          6.422206346036916,25.61381361324427,0
          7.489382275394746,25.899786957068535,0
          8.561671932069657,26.17791267555538,0
          9.639017270493895,26.448055828843724,0
          10.721351622319503,26.71008338839339,0
          11.808599601307662,26.963864432510942,0
          12.90067703054001,27.209270346156366,0
          13.997490893555295,27.446175024436606,0
          15.098939310950072,27.674455079138987,0
          16.20491154389643,27.89399004760458,0
          17.315288025927913,28.104662603193045,0
          18.429940424220945,28.306358766542935,0
          19.548731731457906,28.49896811678853,0
          20.671516389195517,28.68238400185538,0
          21.7981404434843,28.85650374692275,0
          22.92844173328757,29.021228860112984,0
          24.06225011203574,29.17646523444563,0
          25.19938770242669,29.32212334507945,0
          26.339669184342142,29.4581184408573,0
          27.48290211550338,29.584370729169358,0
          28.628887284233656,29.700805553158435,0
          29.777419093435356,29.80735356030831,0
          30.928285974627983,29.903950861481146,0
          32.08127083063701,29.990539179505053,0
          33.236151505268055,30.067065986455482,0
          34.39270127806009,30.133484628825915,0
          35.55068938197658,30.189754439842876,0
          36.70988154168174,30.23584083824802,0
          37.870040529849604,30.271715412944296,0
          39.03092673878069,30.297355992984638,0
          40.19229876445186,30.312746702468107,0
          41.353913999999975,30.317878000000004,0
        </coordinates>
      </LineString>
    </Placemark>
    <Placemark>
      <name>Giza</name>
      <Point>
        <coordinates>31.13,29.98,0</coordinates>
      </Point>
    </Placemark>
    <Placemark>
      <name>Siwa</name>
      <Point>
        <coordinates>25.519545,29.203171,0</coordinates>
      </Point>
    </Placemark>
    <Placemark>
      <name>Tassili n'Ajjer</name>
      <Point>
        <coordinates>8.3333,25.1667,0</coordinates>
      </Point>
    </Placemark>
    <Placemark>
      <name>Paratoari</name>
      <Point>
        <coordinates>-71.4567,-12.6706,0</coordinates>
      </Point>
    </Placemark>
    <Placemark>
      <name>Ollantaytambo</name>
      <Point>
        <coordinates>-72.26333,-13.25806,0</coordinates>
      </Point>
    </Placemark>
    <Placemark>
      <name>Machu Picchu</name>
      <Point>
        <coordinates>-72.54,-13.16,0</coordinates>
      </Point>
    </Placemark>
    <Placemark>
      <name>Nazca</name>
      <Point>
        <coordinates>-75.13,-14.69,0</coordinates>
      </Point>
    </Placemark>
    <Placemark>
      <name>Easter Island</name>
      <Point>
        <coordinates>-109.35,-27.11,0</coordinates>
      </Point>
    </Placemark>
    <Placemark>
      <name>Aneityum Island</name>
      <Point>
        <coordinates>169.818238,-20.192937,0</coordinates>
      </Point>
    </Placemark>
    <Placemark>
      <name>Preah Vihear</name>
      <Point>
        <coordinates>104.68028,14.39056,0</coordinates>
      </Point>
    </Placemark>
    <Placemark>
      <name>Sukhothai</name>
      <Point>
        <coordinates>99.7,17.0167,0</coordinates>
      </Point>
    </Placemark>
    <Placemark>
      <name>Pyay</name>
      <Point>
        <coordinates>95.22,18.85,0</coordinates>
      </Point>
    </Placemark>
    <Placemark>
      <name>Khajuraho</name>
      <Point>
        <coordinates>79.925,24.85,0</coordinates>
      </Point>
    </Placemark>
    <Placemark>
      <name>Mohenjo Daro</name>
      <Point>
        <coordinates>68.1389,27.3292,0</coordinates>
      </Point>
    </Placemark>
    <Placemark>
      <name>Persepolis</name>
      <Point>
        <coordinates>52.89,29.935,0</coordinates>
      </Point>
    </Placemark>
    <Placemark>
      <name>Ur</name>
      <Point>
        <coordinates>46.1018,30.9575,0</coordinates>
      </Point>
    </Placemark>
    <Placemark>
      <name>Petra</name>
      <Point>
        <coordinates>35.44,30.33,0</coordinates>
      </Point>
    </Placemark>
  </Document>
</kml>
